STARLINK-6061           
1 56795U 23078AE  26068.46202690 -.00000189  00000+0 -80139-5 0  9998
2 56795  70.0004 324.8598 0003065 274.8249  85.2560 14.98330180153141
LEMUR-2-LUCILLE-ROSE    
1 65403U 25135BV  26068.85671001  .00014478  00000+0  12144-2 0  9991
2 65403  97.7607 185.3540 0009982 240.4750 119.5478 14.98437227 33752
